<?xml version="1.0" encoding="UTF-8"?>
<kml xmlns="http://www.opengis.net/kml/2.2">
  <Document>
    <name>MAPA POR JURISDICCIONES EPIs</name>
    <description/>
    <Style id="icon-1657-7CB342-normal">
      <IconStyle>
        <color>ff42b37c</color>
        <scale>1</scale>
        <Icon>
          <href>https://www.gstatic.com/mapspro/images/stock/503-wht-blank_maps.png</href>
        </Icon>
      </IconStyle>
      <LabelStyle>
        <scale>0</scale>
      </LabelStyle>
    </Style>
    <Style id="icon-1657-7CB342-highlight">
      <IconStyle>
        <color>ff42b37c</color>
        <scale>1</scale>
        <Icon>
          <href>https://www.gstatic.com/mapspro/images/stock/503-wht-blank_maps.png</href>
        </Icon>
      </IconStyle>
      <LabelStyle>
        <scale>1</scale>
      </LabelStyle>
    </Style>
    <StyleMap id="icon-1657-7CB342">
      <Pair>
        <key>normal</key>
        <styleUrl>#icon-1657-7CB342-normal</styleUrl>
      </Pair>
      <Pair>
        <key>highlight</key>
        <styleUrl>#icon-1657-7CB342-highlight</styleUrl>
      </Pair>
    </StyleMap>
    <Style id="icon-1657-7CB342-nodesc-normal">
      <IconStyle>
        <color>ff42b37c</color>
        <scale>1</scale>
        <Icon>
          <href>https://www.gstatic.com/mapspro/images/stock/503-wht-blank_maps.png</href>
        </Icon>
      </IconStyle>
      <LabelStyle>
        <scale>0</scale>
      </LabelStyle>
      <BalloonStyle>
        <text><![CDATA[<h3>$[name]</h3>]]></text>
      </BalloonStyle>
    </Style>
    <Style id="icon-1657-7CB342-nodesc-highlight">
      <IconStyle>
        <color>ff42b37c</color>
        <scale>1</scale>
        <Icon>
          <href>https://www.gstatic.com/mapspro/images/stock/503-wht-blank_maps.png</href>
        </Icon>
      </IconStyle>
      <LabelStyle>
        <scale>1</scale>
      </LabelStyle>
      <BalloonStyle>
        <text><![CDATA[<h3>$[name]</h3>]]></text>
      </BalloonStyle>
    </Style>
    <StyleMap id="icon-1657-7CB342-nodesc">
      <Pair>
        <key>normal</key>
        <styleUrl>#icon-1657-7CB342-nodesc-normal</styleUrl>
      </Pair>
      <Pair>
        <key>highlight</key>
        <styleUrl>#icon-1657-7CB342-nodesc-highlight</styleUrl>
      </Pair>
    </StyleMap>
    <Style id="icon-1899-0288D1-normal">
      <IconStyle>
        <color>ffd18802</color>
        <scale>1</scale>
        <Icon>
          <href>https://www.gstatic.com/mapspro/images/stock/503-wht-blank_maps.png</href>
        </Icon>
        <hotSpot x="32" xunits="pixels" y="64" yunits="insetPixels"/>
      </IconStyle>
      <LabelStyle>
        <scale>0</scale>
      </LabelStyle>
    </Style>
    <Style id="icon-1899-0288D1-highlight">
      <IconStyle>
        <color>ffd18802</color>
        <scale>1</scale>
        <Icon>
          <href>https://www.gstatic.com/mapspro/images/stock/503-wht-blank_maps.png</href>
        </Icon>
        <hotSpot x="32" xunits="pixels" y="64" yunits="insetPixels"/>
      </IconStyle>
      <LabelStyle>
        <scale>1</scale>
      </LabelStyle>
    </Style>
    <StyleMap id="icon-1899-0288D1">
      <Pair>
        <key>normal</key>
        <styleUrl>#icon-1899-0288D1-normal</styleUrl>
      </Pair>
      <Pair>
        <key>highlight</key>
        <styleUrl>#icon-1899-0288D1-highlight</styleUrl>
      </Pair>
    </StyleMap>
    <Style id="line-0288D1-5069-normal">
      <LineStyle>
        <color>ffd18802</color>
        <width>5.069</width>
      </LineStyle>
    </Style>
    <Style id="line-0288D1-5069-highlight">
      <LineStyle>
        <color>ffd18802</color>
        <width>7.6035</width>
      </LineStyle>
    </Style>
    <StyleMap id="line-0288D1-5069">
      <Pair>
        <key>normal</key>
        <styleUrl>#line-0288D1-5069-normal</styleUrl>
      </Pair>
      <Pair>
        <key>highlight</key>
        <styleUrl>#line-0288D1-5069-highlight</styleUrl>
      </Pair>
    </StyleMap>
    <Style id="poly-097138-7101-92-nodesc-normal">
      <LineStyle>
        <color>ff387109</color>
        <width>7.101</width>
      </LineStyle>
      <PolyStyle>
        <color>5c387109</color>
        <fill>1</fill>
        <outline>1</outline>
      </PolyStyle>
      <BalloonStyle>
        <text><![CDATA[<h3>$[name]</h3>]]></text>
      </BalloonStyle>
    </Style>
    <Style id="poly-097138-7101-92-nodesc-highlight">
      <LineStyle>
        <color>ff387109</color>
        <width>10.6515</width>
      </LineStyle>
      <PolyStyle>
        <color>5c387109</color>
        <fill>1</fill>
        <outline>1</outline>
      </PolyStyle>
      <BalloonStyle>
        <text><![CDATA[<h3>$[name]</h3>]]></text>
      </BalloonStyle>
    </Style>
    <StyleMap id="poly-097138-7101-92-nodesc">
      <Pair>
        <key>normal</key>
        <styleUrl>#poly-097138-7101-92-nodesc-normal</styleUrl>
      </Pair>
      <Pair>
        <key>highlight</key>
        <styleUrl>#poly-097138-7101-92-nodesc-highlight</styleUrl>
      </Pair>
    </StyleMap>
    <Style id="poly-795548-5101-77-nodesc-normal">
      <LineStyle>
        <color>ff485579</color>
        <width>5.101</width>
      </LineStyle>
      <PolyStyle>
        <color>4d485579</color>
        <fill>1</fill>
        <outline>1</outline>
      </PolyStyle>
      <BalloonStyle>
        <text><![CDATA[<h3>$[name]</h3>]]></text>
      </BalloonStyle>
    </Style>
    <Style id="poly-795548-5101-77-nodesc-highlight">
      <LineStyle>
        <color>ff485579</color>
        <width>7.6515</width>
      </LineStyle>
      <PolyStyle>
        <color>4d485579</color>
        <fill>1</fill>
        <outline>1</outline>
      </PolyStyle>
      <BalloonStyle>
        <text><![CDATA[<h3>$[name]</h3>]]></text>
      </BalloonStyle>
    </Style>
    <StyleMap id="poly-795548-5101-77-nodesc">
      <Pair>
        <key>normal</key>
        <styleUrl>#poly-795548-5101-77-nodesc-normal</styleUrl>
      </Pair>
      <Pair>
        <key>highlight</key>
        <styleUrl>#poly-795548-5101-77-nodesc-highlight</styleUrl>
      </Pair>
    </StyleMap>
    <Style id="poly-7CB342-5901-77-nodesc-normal">
      <LineStyle>
        <color>ff42b37c</color>
        <width>5.901</width>
      </LineStyle>
      <PolyStyle>
        <color>4d42b37c</color>
        <fill>1</fill>
        <outline>1</outline>
      </PolyStyle>
      <BalloonStyle>
        <text><![CDATA[<h3>$[name]</h3>]]></text>
      </BalloonStyle>
    </Style>
    <Style id="poly-7CB342-5901-77-nodesc-highlight">
      <LineStyle>
        <color>ff42b37c</color>
        <width>8.8515</width>
      </LineStyle>
      <PolyStyle>
        <color>4d42b37c</color>
        <fill>1</fill>
        <outline>1</outline>
      </PolyStyle>
      <BalloonStyle>
        <text><![CDATA[<h3>$[name]</h3>]]></text>
      </BalloonStyle>
    </Style>
    <StyleMap id="poly-7CB342-5901-77-nodesc">
      <Pair>
        <key>normal</key>
        <styleUrl>#poly-7CB342-5901-77-nodesc-normal</styleUrl>
      </Pair>
      <Pair>
        <key>highlight</key>
        <styleUrl>#poly-7CB342-5901-77-nodesc-highlight</styleUrl>
      </Pair>
    </StyleMap>
    <Style id="poly-CE93D8-4801-102-nodesc-normal">
      <LineStyle>
        <color>ffd893ce</color>
        <width>4.801</width>
      </LineStyle>
      <PolyStyle>
        <color>66d893ce</color>
        <fill>1</fill>
        <outline>1</outline>
      </PolyStyle>
      <BalloonStyle>
        <text><![CDATA[<h3>$[name]</h3>]]></text>
      </BalloonStyle>
    </Style>
    <Style id="poly-CE93D8-4801-102-nodesc-highlight">
      <LineStyle>
        <color>ffd893ce</color>
        <width>7.2015</width>
      </LineStyle>
      <PolyStyle>
        <color>66d893ce</color>
        <fill>1</fill>
        <outline>1</outline>
      </PolyStyle>
      <BalloonStyle>
        <text><![CDATA[<h3>$[name]</h3>]]></text>
      </BalloonStyle>
    </Style>
    <StyleMap id="poly-CE93D8-4801-102-nodesc">
      <Pair>
        <key>normal</key>
        <styleUrl>#poly-CE93D8-4801-102-nodesc-normal</styleUrl>
      </Pair>
      <Pair>
        <key>highlight</key>
        <styleUrl>#poly-CE93D8-4801-102-nodesc-highlight</styleUrl>
      </Pair>
    </StyleMap>
    <Style id="poly-F9A825-4801-77-nodesc-normal">
      <LineStyle>
        <color>ff25a8f9</color>
        <width>4.801</width>
      </LineStyle>
      <PolyStyle>
        <color>4d25a8f9</color>
        <fill>1</fill>
        <outline>1</outline>
      </PolyStyle>
      <BalloonStyle>
        <text><![CDATA[<h3>$[name]</h3>]]></text>
      </BalloonStyle>
    </Style>
    <Style id="poly-F9A825-4801-77-nodesc-highlight">
      <LineStyle>
        <color>ff25a8f9</color>
        <width>7.2015</width>
      </LineStyle>
      <PolyStyle>
        <color>4d25a8f9</color>
        <fill>1</fill>
        <outline>1</outline>
      </PolyStyle>
      <BalloonStyle>
        <text><![CDATA[<h3>$[name]</h3>]]></text>
      </BalloonStyle>
    </Style>
    <StyleMap id="poly-F9A825-4801-77-nodesc">
      <Pair>
        <key>normal</key>
        <styleUrl>#poly-F9A825-4801-77-nodesc-normal</styleUrl>
      </Pair>
      <Pair>
        <key>highlight</key>
        <styleUrl>#poly-F9A825-4801-77-nodesc-highlight</styleUrl>
      </Pair>
    </StyleMap>
    <Style id="poly-FFD600-5001-92-nodesc-normal">
      <LineStyle>
        <color>ff00d6ff</color>
        <width>5.001</width>
      </LineStyle>
      <PolyStyle>
        <color>5c00d6ff</color>
        <fill>1</fill>
        <outline>1</outline>
      </PolyStyle>
      <BalloonStyle>
        <text><![CDATA[<h3>$[name]</h3>]]></text>
      </BalloonStyle>
    </Style>
    <Style id="poly-FFD600-5001-92-nodesc-highlight">
      <LineStyle>
        <color>ff00d6ff</color>
        <width>7.5015</width>
      </LineStyle>
      <PolyStyle>
        <color>5c00d6ff</color>
        <fill>1</fill>
        <outline>1</outline>
      </PolyStyle>
      <BalloonStyle>
        <text><![CDATA[<h3>$[name]</h3>]]></text>
      </BalloonStyle>
    </Style>
    <StyleMap id="poly-FFD600-5001-92-nodesc">
      <Pair>
        <key>normal</key>
        <styleUrl>#poly-FFD600-5001-92-nodesc-normal</styleUrl>
      </Pair>
      <Pair>
        <key>highlight</key>
        <styleUrl>#poly-FFD600-5001-92-nodesc-highlight</styleUrl>
      </Pair>
    </StyleMap>
    <Folder>
      <name>EPI CENTRAL</name>
      <Placemark>
        <name>JURISDICCION KL11</name>
        <styleUrl>#poly-FFD600-5001-92-nodesc</styleUrl>
        <Polygon>
          <outerBoundaryIs>
            <LinearRing>
              <tessellate>1</tessellate>
              <coordinates>
                -64.7362879,-21.5146626,0
                -64.7390951,-21.5187064,0
                -64.7351772,-21.5212473,0
                -64.7397843,-21.5213001,0
                -64.7413369,-21.5202486,0
                -64.7423315,-21.5215924,0
                -64.7448849,-21.5178945,0
                -64.7448527,-21.5188028,0
                -64.744606,-21.5193617,0
                -64.7446167,-21.52023,0
                -64.7457754,-21.5210485,0
                -64.7464267,-21.5217691,0
                -64.7463301,-21.5241046,0
                -64.7451285,-21.524424,0
                -64.7432402,-21.5262205,0
                -64.7425107,-21.5278972,0
                -64.7419528,-21.5296138,0
                -64.7415665,-21.530532,0
                -64.7412232,-21.5326078,0
                -64.740676,-21.5348533,0
                -64.7331229,-21.5417892,0
                -64.7311917,-21.5429868,0
                -64.7291104,-21.5440745,0
                -64.7272436,-21.5454117,0
                -64.7197226,-21.5546421,0
                -64.7190467,-21.5546022,0
                -64.7186497,-21.5543228,0
                -64.7186068,-21.5498124,0
                -64.7192505,-21.5490141,0
                -64.7204093,-21.5494133,0
                -64.7210101,-21.5492536,0
                -64.7214392,-21.5474574,0
                -64.7194651,-21.5459007,0
                -64.7198084,-21.5454616,0
                -64.7215251,-21.5457809,0
                -64.7221259,-21.5450225,0
                -64.7216967,-21.5442641,0
                -64.7192076,-21.5434258,0
                -64.7179202,-21.5425077,0
                -64.7173194,-21.5401526,0
                -64.7177056,-21.5385558,0
                -64.7197655,-21.5338054,0
                -64.7179631,-21.5323284,0
                -64.7216967,-21.5289751,0
                -64.7227267,-21.5271786,0
                -64.7268895,-21.5208309,0
                -64.7280482,-21.5197929,0
                -64.7298077,-21.5177168,0
                -64.7362879,-21.5146626,0
              </coordinates>
            </LinearRing>
          </outerBoundaryIs>
        </Polygon>
      </Placemark>
      <Placemark>
        <name>MODULO POLICIAL LUIS PIZARRO</name>
        <styleUrl>#icon-1657-7CB342-nodesc</styleUrl>
        <Point>
          <coordinates>
            -64.7436266,-21.5204494,0
          </coordinates>
        </Point>
      </Placemark>
      <Placemark>
        <name>EPI CENTRAL</name>
        <styleUrl>#poly-7CB342-5901-77-nodesc</styleUrl>
        <Polygon>
          <outerBoundaryIs>
            <LinearRing>
              <tessellate>1</tessellate>
              <coordinates>
                -64.7355102,-21.533698,0
                -64.7355799,-21.5338876,0
                -64.7352312,-21.5339974,0
                -64.7351722,-21.5338128,0
                -64.7355102,-21.533698,0
              </coordinates>
            </LinearRing>
          </outerBoundaryIs>
        </Polygon>
      </Placemark>
      <Placemark>
        <name>MODULO GARCIA AGREDA</name>
        <styleUrl>#icon-1657-7CB342-nodesc</styleUrl>
        <Point>
          <coordinates>
            -64.737293,-21.5367677,0
          </coordinates>
        </Point>
      </Placemark>
      <Placemark>
        <name>EPI CENTRAL</name>
        <description>COMANDANTE: MY. DI.G.P. ALDO NORMAN SOSA MEDINA</description>
        <styleUrl>#icon-1899-0288D1</styleUrl>
        <Point>
          <coordinates>
            -64.7354144,-21.5338321,0
          </coordinates>
        </Point>
      </Placemark>
      <Placemark>
        <name>Línea 5</name>
        <description>JURISDICION EPI CHAPACOS</description>
        <styleUrl>#line-0288D1-5069</styleUrl>
        <LineString>
          <tessellate>1</tessellate>
          <coordinates>
            -64.7464803,-21.5237764,0
            -64.7465447,-21.5216206,0
            -64.7457293,-21.5208221,0
            -64.74471,-21.5201634,0
            -64.7447208,-21.5192651,0
            -64.7449032,-21.5188658,0
            -64.7449568,-21.517718,0
            -64.7447851,-21.5178278,0
            -64.7437015,-21.5194447,0
            -64.7423175,-21.5214709,0
            -64.7413841,-21.5201135,0
            -64.7397426,-21.5212213,0
            -64.7353009,-21.5212114,0
            -64.7391471,-21.5187261,0
            -64.7371462,-21.5158466,0
            -64.7362718,-21.5145989,0
            -64.7371221,-21.5141697,0
            -64.7342307,-21.5102645,0
            -64.732278,-21.507507,0
            -64.7287335,-21.5026981,0
            -64.7272154,-21.5004721,0
            -64.7258313,-21.4983858,0
            -64.725134,-21.4978916,0
            -64.7235676,-21.499389,0
            -64.7230311,-21.4988499,0
            -64.7238036,-21.4967137,0
            -64.7249409,-21.4963743,0
            -64.7235461,-21.4949168,0
            -64.725606,-21.4938786,0
            -64.723868,-21.491902,0
            -64.7260137,-21.4910235,0
            -64.7254558,-21.4894263,0
            -64.7259923,-21.487789,0
            -64.7242113,-21.4859521,0
            -64.7248979,-21.485413,0
            -64.7241898,-21.484235,0
            -64.7251125,-21.4831967,0
            -64.7255631,-21.481799,0
            -64.7232028,-21.4799621,0
            -64.7215505,-21.4714957,0
            -64.7320219,-21.4606324,0
            -64.7364851,-21.4708567,0
            -64.7409483,-21.4743711,0
            -64.7433515,-21.4711762,0
            -64.7492126,-21.4667695,0
            -64.7527317,-21.4714023,0
            -64.7544483,-21.4769934,0
            -64.7565082,-21.4796291,0
            -64.7564224,-21.4837024,0
            -64.7572807,-21.4890534,0
            -64.7583106,-21.4943243,0
            -64.7597698,-21.4990361,0
            -64.7611001,-21.5018711,0
            -64.7619155,-21.5037876,0
            -64.7628168,-21.5061434,0
            -64.7619584,-21.5103357,0
            -64.7630313,-21.5130507,0
            -64.7636076,-21.5144404,0
            -64.7647234,-21.5161572,0
            -64.76438,-21.5177542,0
            -64.763908,-21.5185127,0
            -64.7642513,-21.5199101,0
            -64.7635647,-21.5203093,0
            -64.7621914,-21.5201895,0
            -64.7615047,-21.519431,0
            -64.7616335,-21.5181933,0
            -64.7616335,-21.5175146,0
            -64.7609897,-21.5171553,0
            -64.760346,-21.5174348,0
            -64.7599168,-21.5185527,0
            -64.7587152,-21.5191515,0
            -64.7569128,-21.519431,0
            -64.7554107,-21.5192314,0
            -64.7542091,-21.5192314,0
            -64.7527929,-21.5194709,0
            -64.7519775,-21.5203492,0
            -64.7501322,-21.522026,0
            -64.7478576,-21.5234233,0
            -64.7464803,-21.5237764,0
          </coordinates>
        </LineString>
      </Placemark>
      <Placemark>
        <name>JURISDICCION DE LA EPI MOTO MENDEZ</name>
        <styleUrl>#poly-097138-7101-92-nodesc</styleUrl>
        <Polygon>
          <outerBoundaryIs>
            <LinearRing>
              <tessellate>1</tessellate>
              <coordinates>
                -64.7178307,-21.5425784,0
                -64.7191396,-21.5434765,0
                -64.7216394,-21.5443347,0
                -64.7220256,-21.5450233,0
                -64.7214999,-21.5456819,0
                -64.7198262,-21.5453726,0
                -64.7193434,-21.5459014,0
                -64.721339,-21.5474981,0
                -64.720942,-21.5491945,0
                -64.720427,-21.5493342,0
                -64.7192254,-21.5489351,0
                -64.718528,-21.5497533,0
                -64.718571,-21.5543336,0
                -64.715009,-21.5591033,0
                -64.7111895,-21.5625357,0
                -64.7088721,-21.5667663,0
                -64.7071126,-21.5690811,0
                -64.7069838,-21.5732717,0
                -64.7060826,-21.5749877,0
                -64.7031644,-21.5772625,0
                -64.7005465,-21.5815326,0
                -64.6944955,-21.5848049,0
                -64.6929934,-21.5866805,0
                -64.6893885,-21.5875983,0
                -64.685097,-21.5887156,0
                -64.6846249,-21.5907109,0
                -64.6827824,-21.5891004,0
                -64.6838553,-21.5869057,0
                -64.6837695,-21.5852296,0
                -64.6861364,-21.5831096,0
                -64.6877671,-21.580815,0
                -64.6915222,-21.5771435,0
                -64.692402,-21.5762655,0
                -64.6929384,-21.5751281,0
                -64.6939255,-21.5744297,0
                -64.6954275,-21.5722547,0
                -64.6975733,-21.5706383,0
                -64.7001053,-21.5680043,0
                -64.7002984,-21.5676251,0
                -64.698357,-21.5637432,0
                -64.698829,-21.5621268,0
                -64.6999019,-21.5614083,0
                -64.7009104,-21.5618673,0
                -64.7014469,-21.5619272,0
                -64.7051805,-21.5573572,0
                -64.706189,-21.5562596,0
                -64.7067469,-21.5566387,0
                -64.7072834,-21.5561797,0
                -64.7080773,-21.5538448,0
                -64.7096008,-21.5526274,0
                -64.7104591,-21.5526074,0
                -64.7113389,-21.5518291,0
                -64.7127336,-21.550472,0
                -64.7126692,-21.5500329,0
                -64.7164887,-21.5471989,0
                -64.71636,-21.5469195,0
                -64.7158235,-21.5464405,0
                -64.7152013,-21.5458617,0
                -64.7143859,-21.5458816,0
                -64.7127336,-21.5453228,0
                -64.7119397,-21.5433469,0
                -64.7118753,-21.5426084,0
                -64.7117251,-21.5409518,0
                -64.7111243,-21.5402732,0
                -64.7104162,-21.5403132,0
                -64.709987,-21.5409119,0
                -64.7093004,-21.5416504,0
                -64.7082919,-21.5420695,0
                -64.7074336,-21.5413909,0
                -64.7061247,-21.5395946,0
                -64.7044295,-21.5382374,0
                -64.7037858,-21.5378382,0
                -64.7037643,-21.5375189,0
                -64.7035927,-21.5372394,0
                -64.7029918,-21.53696,0
                -64.7026914,-21.536481,0
                -64.70267,-21.5358423,0
                -64.7029704,-21.5352335,0
                -64.7037643,-21.5344151,0
                -64.7045153,-21.533996,0
                -64.7049445,-21.5336367,0
                -64.7051591,-21.5334171,0
                -64.7049874,-21.5331377,0
                -64.7047085,-21.5328583,0
                -64.7042793,-21.5323393,0
                -64.7042578,-21.5317405,0
                -64.7027558,-21.5295249,0
                -64.7024983,-21.5286666,0
                -64.7022408,-21.5281875,0
                -64.70267,-21.5277284,0
                -64.703185,-21.5271695,0
                -64.7030133,-21.5267304,0
                -64.7023052,-21.526391,0
                -64.7016829,-21.525892,0
                -64.7008246,-21.5257323,0
                -64.6999019,-21.5257323,0
                -64.6990436,-21.5254329,0
                -64.6983784,-21.524894,0
                -64.6980137,-21.5243949,0
                -64.6978205,-21.523856,0
                -64.6970266,-21.523836,0
                -64.6962541,-21.5238161,0
                -64.6958679,-21.5248141,0
                -64.6948379,-21.5250736,0
                -64.694044,-21.5239757,0
                -64.6937221,-21.5230376,0
                -64.6942371,-21.5221593,0
                -64.6937865,-21.521241,0
                -64.6934861,-21.5203827,0
                -64.690997,-21.5206022,0
                -64.6905464,-21.5192249,0
                -64.6895593,-21.517029,0
                -64.6896452,-21.514953,0
                -64.693993,-21.5106385,0
                -64.6960825,-21.5124177,0
                -64.6976247,-21.5137802,0
                -64.7004062,-21.5162805,0
                -64.7067225,-21.5220942,0
                -64.7142327,-21.5289409,0
                -64.7159493,-21.5304778,0
                -64.7178422,-21.5321446,0
                -64.717928,-21.5323791,0
                -64.7181989,-21.5325563,0
                -64.7190143,-21.5332324,0
                -64.7197305,-21.5338163,0
                -64.7176303,-21.5385093,0
                -64.7172441,-21.540126,0
                -64.7178307,-21.5425784,0
              </coordinates>
            </LinearRing>
          </outerBoundaryIs>
        </Polygon>
      </Placemark>
    </Folder>
    <Folder>
      <name>EPI LOURDES</name>
      <Placemark>
        <name>EPI LOURDES</name>
        <styleUrl>#poly-CE93D8-4801-102-nodesc</styleUrl>
        <Polygon>
          <outerBoundaryIs>
            <LinearRing>
              <tessellate>1</tessellate>
              <coordinates>
                -64.7180179,-21.5322518,0
                -64.7033677,-21.518931,0
                -64.6996555,-21.5155374,0
                -64.6952513,-21.5116397,0
                -64.6940119,-21.5105766,0
                -64.7008784,-21.5051465,0
                -64.7129382,-21.4931312,0
                -64.714054,-21.4940097,0
                -64.7152342,-21.4934906,0
                -64.7166289,-21.493291,0
                -64.7143115,-21.480832,0
                -64.7167148,-21.4789151,0
                -64.7231521,-21.4801131,0
                -64.7253837,-21.4818703,0
                -64.7248687,-21.4833079,0
                -64.7240104,-21.4842663,0
                -64.724697,-21.4853844,0
                -64.7240104,-21.4859435,0
                -64.7258128,-21.4878603,0
                -64.7252978,-21.4894575,0
                -64.7258128,-21.490975,0
                -64.7236671,-21.4918534,0
                -64.7253837,-21.49385,0
                -64.7233237,-21.4948882,0
                -64.724697,-21.4963257,0
                -64.7236671,-21.4966451,0
                -64.7228946,-21.4988812,0
                -64.7235812,-21.4995201,0
                -64.725212,-21.4980826,0
                -64.7259416,-21.4986416,0
                -64.7286774,-21.5027044,0
                -64.7293319,-21.5035429,0
                -64.7314669,-21.5064127,0
                -64.7347768,-21.5110742,0
                -64.7370781,-21.5141684,0
                -64.7351759,-21.5149794,0
                -64.72979,-21.5174747,0
                -64.7270435,-21.5205488,0
                -64.721679,-21.5286531,0
                -64.7180179,-21.5322518,0
              </coordinates>
            </LinearRing>
          </outerBoundaryIs>
        </Polygon>
      </Placemark>
      <Placemark>
        <name>E.P.I. Lourdes</name>
        <description>COMANDANTE: TCNL. DEAP. ALDUNATE</description>
        <styleUrl>#icon-1657-7CB342</styleUrl>
        <Point>
          <coordinates>
            -64.7263357,-21.5135628,0
          </coordinates>
        </Point>
      </Placemark>
      <Placemark>
        <name>JURISDICCION EPI MORROS BLANCOS</name>
        <styleUrl>#poly-795548-5101-77-nodesc</styleUrl>
        <Polygon>
          <outerBoundaryIs>
            <LinearRing>
              <tessellate>1</tessellate>
              <coordinates>
                -64.7024937,-21.5356717,0
                -64.7024937,-21.53653,0
                -64.7026654,-21.5369092,0
                -64.703116,-21.5371887,0
                -64.7034807,-21.5374282,0
                -64.7037382,-21.5379671,0
                -64.7047038,-21.5386457,0
                -64.7059055,-21.5395838,0
                -64.7072358,-21.5414998,0
                -64.7082014,-21.5421984,0
                -64.7092958,-21.5418391,0
                -64.7105403,-21.540442,0
                -64.7110982,-21.540442,0
                -64.7115703,-21.5410009,0
                -64.711699,-21.5417593,0
                -64.7118063,-21.5435356,0
                -64.7125466,-21.5451223,0
                -64.7108515,-21.5458508,0
                -64.7097249,-21.5459207,0
                -64.7090812,-21.5459805,0
                -64.706635,-21.5472978,0
                -64.7068496,-21.5478367,0
                -64.70612,-21.5494732,0
                -64.7044678,-21.5503114,0
                -64.7040386,-21.5507505,0
                -64.7036739,-21.5510898,0
                -64.703352,-21.5517284,0
                -64.702322,-21.5524868,0
                -64.697022,-21.5559593,0
                -64.6896191,-21.5606491,0
                -64.6830101,-21.5654785,0
                -64.6849842,-21.5681924,0
                -64.6851344,-21.568392,0
                -64.6847697,-21.5686115,0
                -64.6844049,-21.5685117,0
                -64.6838899,-21.5688509,0
                -64.6850915,-21.5704473,0
                -64.6847267,-21.5725027,0
                -64.6857138,-21.5750768,0
                -64.6861644,-21.5761942,0
                -64.6887822,-21.5769924,0
                -64.6908422,-21.5775112,0
                -64.6876235,-21.5807237,0
                -64.6862717,-21.5826393,0
                -64.6850271,-21.5839761,0
                -64.6837397,-21.5850336,0
                -64.6803012,-21.5891663,0
                -64.6746363,-21.5909221,0
                -64.6698298,-21.5917202,0
                -64.6650233,-21.5907625,0
                -64.6619334,-21.5886875,0
                -64.6595301,-21.5870913,0
                -64.6579852,-21.5856547,0
                -64.6321501,-21.5636251,0
                -64.6394457,-21.5519704,0
                -64.6572127,-21.5408737,0
                -64.6657424,-21.538835,0
                -64.6681242,-21.5428467,0
                -64.6700125,-21.5461997,0
                -64.6732311,-21.5480359,0
                -64.6760635,-21.5471976,0
                -64.6795397,-21.5471976,0
                -64.6827583,-21.5486346,0
                -64.687479,-21.5471976,0
                -64.6858482,-21.5438446,0
                -64.6875649,-21.5400924,0
                -64.6868782,-21.5375376,0
                -64.6853333,-21.5355816,0
                -64.6838741,-21.5354219,0
                -64.683445,-21.5323081,0
                -64.6838741,-21.5309908,0
                -64.6864491,-21.5321884,0
                -64.6880798,-21.5304718,0
                -64.6911697,-21.5272781,0
                -64.6958904,-21.5296933,0
                -64.6974354,-21.531869,0
                -64.6991305,-21.5336654,0
                -64.6996455,-21.5346834,0
                -64.7003322,-21.5349229,0
                -64.7010403,-21.5353221,0
                -64.7029704,-21.5352335,0
                -64.7024937,-21.5356717,0
              </coordinates>
            </LinearRing>
          </outerBoundaryIs>
        </Polygon>
      </Placemark>
      <Placemark>
        <name>JURISDICCION DE LA EPI SENAC</name>
        <styleUrl>#poly-F9A825-4801-77-nodesc</styleUrl>
        <Polygon>
          <outerBoundaryIs>
            <LinearRing>
              <tessellate>1</tessellate>
              <coordinates>
                -64.740768,-21.5346982,0
                -64.7414518,-21.5322937,0
                -64.7419882,-21.530128,0
                -64.7438658,-21.5264153,0
                -64.7458399,-21.5244891,0
                -64.747653,-21.5235908,0
                -64.7509576,-21.5218242,0
                -64.7531462,-21.5195286,0
                -64.754305,-21.5192791,0
                -64.755528,-21.5192492,0
                -64.7569764,-21.5194089,0
                -64.7588647,-21.5191294,0
                -64.7601414,-21.5185405,0
                -64.7605921,-21.5173528,0
                -64.7610856,-21.5171731,0
                -64.7615577,-21.5174126,0
                -64.761504,-21.5190495,0
                -64.7614825,-21.519349,0
                -64.7622336,-21.5201275,0
                -64.7636712,-21.5202672,0
                -64.7644544,-21.5198081,0
                -64.7641111,-21.5184008,0
                -64.7721119,-21.5252752,0
                -64.7737426,-21.5290677,0
                -64.7782488,-21.5336985,0
                -64.7782488,-21.5344969,0
                -64.7779484,-21.535934,0
                -64.783098,-21.5330735,0
                -64.7813816,-21.5417621,0
                -64.7864885,-21.5460332,0
                -64.7892351,-21.5473904,0
                -64.78078,-21.5512994,0
                -64.7671329,-21.5578453,0
                -64.7611892,-21.5497227,0
                -64.758464,-21.5459307,0
                -64.7545802,-21.5452521,0
                -64.7508036,-21.5455316,0
                -64.7487223,-21.5450925,0
                -64.7476922,-21.5448929,0
                -64.7462116,-21.5448929,0
                -64.7433792,-21.5443341,0
                -64.7438943,-21.5453719,0
                -64.7431862,-21.5457511,0
                -64.7418557,-21.5461303,0
                -64.7371485,-21.5521803,0
                -64.735346,-21.5647529,0
                -64.7310545,-21.5748102,0
                -64.7260762,-21.5811955,0
                -64.7247029,-21.5842284,0
                -64.7250464,-21.5875804,0
                -64.7228148,-21.5942045,0
                -64.7247029,-21.5998707,0
                -64.7057139,-21.593831,0
                -64.6900927,-21.59423,0
                -64.6851144,-21.5911175,0
                -64.6852647,-21.5887831,0
                -64.6930753,-21.5866881,0
                -64.694706,-21.5847726,0
                -64.7008644,-21.5814405,0
                -64.7033963,-21.5772103,0
                -64.7063575,-21.5748757,0
                -64.7072588,-21.5730798,0
                -64.7073876,-21.5689491,0
                -64.7092328,-21.5664348,0
                -64.7114216,-21.5624037,0
                -64.7152625,-21.5590111,0
                -64.7186958,-21.5543213,0
                -64.7189961,-21.5545408,0
                -64.719833,-21.5546207,0
                -64.7274076,-21.5454202,0
                -64.7292959,-21.5440829,0
                -64.7336518,-21.541628,0
                -64.7401533,-21.5354606,0
                -64.740768,-21.5346982,0
              </coordinates>
            </LinearRing>
          </outerBoundaryIs>
        </Polygon>
      </Placemark>
    </Folder>
    <Folder>
      <name>EPI MOTO MENDEZ</name>
    </Folder>
  </Document>
</kml>

